ONEWEB-0236             
1 48797U 21045AG  26026.25285579  .00000036  00000+0  61950-4 0  9999
2 48797  87.8992 287.5485 0001606  81.5251 278.6062 13.15548742225598
ONEWEB-0248             
1 48798U 21045AH  26026.26553147 -.00000154  00000+0 -44308-3 0  9990
2 48798  87.9004 287.5147 0001038  87.2304 272.8946 13.15548613225752
ONEWEB-0225             
1 48799U 21045AJ  26026.13560732 -.00000231  00000+0 -64884-3 0  9992
2 48799  87.8995 287.5598 0001027  63.7732 296.3504 13.15548829225742
ONEWEB-0215             
1 48800U 21045AK  26026.25761350 -.00000056  00000+0 -18221-3 0  9996
2 48800  87.9010 287.5030 0000827  71.4418 288.6803 13.15548442225634
ONEWEB-0216             
1 48801U 21045AL  26026.26711556 -.00000156  00000+0 -44775-3 0  9995
2 48801  87.8999 287.5258 0001599  70.2401 289.8902 13.15548518225646
ONEWEB-0239             
1 48802U 21045AM  26026.27187240 -.00000026  00000+0 -10294-3 0  9999
2 48802  87.8994 287.5394 0000715  85.4452 274.6760 13.15548655225686
ONEWEB-0249             
1 48967U 21060A   26026.16580929 -.00002691  00000+0 -70786-2 0  9998
2 48967  87.9016 257.0530 0001246  83.9981 276.1291 13.16569966220925
ONEWEB-0250             
1 48968U 21060B   26026.12579695  .00000092  00000+0  18044-3 0  9994
2 48968  87.9011 255.2808 0001741 119.6972 240.4338 13.25824352221397
ONEWEB-0252             
1 48970U 21060D   26026.19743856 -.00000048  00000+0 -15996-3 0  9992
2 48970  87.9013 257.0399 0001536  73.4315 286.6984 13.16594382220976
ONEWEB-0253             
1 48971U 21060E   26026.18635438 -.00000253  00000+0 -69635-3 0  9995
2 48971  87.9017 257.0474 0001332  81.4198 278.7084 13.16594580220903
ONEWEB-0254             
1 48972U 21060F   26026.19584774  .00000008  00000+0 -12649-4 0  9994
2 48972  87.9018 257.0386 0001175  89.1400 270.9866 13.16593557220908
ONEWEB-0255             
1 48973U 21060G   26025.92986412 -.00000016  00000+0 -76650-4 0  9992
2 48973  87.9014 257.1040 0001234  85.6440 274.4832 13.16594923220948
ONEWEB-0256             
1 48974U 21060H   26026.18398190  .00000052  00000+0  10286-3 0  9992
2 48974  87.9008 257.0595 0001591  79.1965 280.9345 13.16594554220943
ONEWEB-0257             
1 48975U 21060J   26026.14043459 -.00000091  00000+0 -27171-3 0  9990
2 48975  87.9016 257.0511 0001338  78.7911 281.3370 13.16593993220899
ONEWEB-0258             
1 48976U 21060K   26026.06602339 -.00000130  00000+0 -37492-3 0  9991
2 48976  87.9009 257.0786 0001509  86.3828 273.7475 13.16593973220897
ONEWEB-0259             
1 48977U 21060L   26026.13568632 -.00000152  00000+0 -43243-3 0  9992
2 48977  87.9016 257.0619 0001334  85.2175 274.9108 13.16594284220937
