[{"OBJECT_NAME":"ONEWEB-0236","OBJECT_ID":"2021-045AG","EPOCH":"2026-01-26T06:04:06.740256","MEAN_MOTION":13.15548742,"ECCENTRICITY":0.00016067,"INCLINATION":87.8992,"RA_OF_ASC_NODE":287.5485,"ARG_OF_PERICENTER":81.5251,"MEAN_ANOMALY":278.6062,"EPHEMERIS_TYPE":0,"CLASSIFICATION_TYPE":"U","NORAD_CAT_ID":48797,"ELEMENT_SET_NO":999,"REV_AT_EPOCH":22559,"BSTAR":6.1950364e-5,"MEAN_MOTION_DOT":3.6e-7,"MEAN_MOTION_DDOT":0},{"OBJECT_NAME":"ONEWEB-0248","OBJECT_ID":"2021-045AH","EPOCH":"2026-01-26T06:22:21.919008","MEAN_MOTION":13.15548613,"ECCENTRICITY":0.00010388,"INCLINATION":87.9004,"RA_OF_ASC_NODE":287.5147,"ARG_OF_PERICENTER":87.2304,"MEAN_ANOMALY":272.8946,"EPHEMERIS_TYPE":0,"CLASSIFICATION_TYPE":"U","NORAD_CAT_ID":48798,"ELEMENT_SET_NO":999,"REV_AT_EPOCH":22575,"BSTAR":-0.00044308456,"MEAN_MOTION_DOT":-1.54e-6,"MEAN_MOTION_DDOT":0},{"OBJECT_NAME":"ONEWEB-0225","OBJECT_ID":"2021-045AJ","EPOCH":"2026-01-26T03:15:16.472448","MEAN_MOTION":13.15548829,"ECCENTRICITY":0.00010274,"INCLINATION":87.8995,"RA_OF_ASC_NODE":287.5598,"ARG_OF_PERICENTER":63.7732,"MEAN_ANOMALY":296.3504,"EPHEMERIS_TYPE":0,"CLASSIFICATION_TYPE":"U","NORAD_CAT_ID":48799,"ELEMENT_SET_NO":999,"REV_AT_EPOCH":22574,"BSTAR":-0.00064883961,"MEAN_MOTION_DOT":-2.31e-6,"MEAN_MOTION_DDOT":0},{"OBJECT_NAME":"ONEWEB-0215","OBJECT_ID":"2021-045AK","EPOCH":"2026-01-26T06:10:57.806400","MEAN_MOTION":13.15548442,"ECCENTRICITY":8.277e-5,"INCLINATION":87.901,"RA_OF_ASC_NODE":287.503,"ARG_OF_PERICENTER":71.4418,"MEAN_ANOMALY":288.6803,"EPHEMERIS_TYPE":0,"CLASSIFICATION_TYPE":"U","NORAD_CAT_ID":48800,"ELEMENT_SET_NO":999,"REV_AT_EPOCH":22563,"BSTAR":-0.00018220518,"MEAN_MOTION_DOT":-5.6e-7,"MEAN_MOTION_DDOT":0},{"OBJECT_NAME":"ONEWEB-0216","OBJECT_ID":"2021-045AL","EPOCH":"2026-01-26T06:24:38.784384","MEAN_MOTION":13.15548518,"ECCENTRICITY":0.00015992,"INCLINATION":87.8999,"RA_OF_ASC_NODE":287.5258,"ARG_OF_PERICENTER":70.2401,"MEAN_ANOMALY":289.8902,"EPHEMERIS_TYPE":0,"CLASSIFICATION_TYPE":"U","NORAD_CAT_ID":48801,"ELEMENT_SET_NO":999,"REV_AT_EPOCH":22564,"BSTAR":-0.00044775033,"MEAN_MOTION_DOT":-1.56e-6,"MEAN_MOTION_DDOT":0},{"OBJECT_NAME":"ONEWEB-0239","OBJECT_ID":"2021-045AM","EPOCH":"2026-01-26T06:31:29.775360","MEAN_MOTION":13.15548655,"ECCENTRICITY":7.152e-5,"INCLINATION":87.8994,"RA_OF_ASC_NODE":287.5394,"ARG_OF_PERICENTER":85.4452,"MEAN_ANOMALY":274.676,"EPHEMERIS_TYPE":0,"CLASSIFICATION_TYPE":"U","NORAD_CAT_ID":48802,"ELEMENT_SET_NO":999,"REV_AT_EPOCH":22568,"BSTAR":-0.00010294468,"MEAN_MOTION_DOT":-2.6e-7,"MEAN_MOTION_DDOT":0},{"OBJECT_NAME":"ONEWEB-0249","OBJECT_ID":"2021-060A","EPOCH":"2026-01-26T03:58:45.922656","MEAN_MOTION":13.16569966,"ECCENTRICITY":0.00012464,"INCLINATION":87.9016,"RA_OF_ASC_NODE":257.053,"ARG_OF_PERICENTER":83.9981,"MEAN_ANOMALY":276.1291,"EPHEMERIS_TYPE":0,"CLASSIFICATION_TYPE":"U","NORAD_CAT_ID":48967,"ELEMENT_SET_NO":999,"REV_AT_EPOCH":22092,"BSTAR":-0.0070786086,"MEAN_MOTION_DOT":-2.691e-5,"MEAN_MOTION_DDOT":0},{"OBJECT_NAME":"ONEWEB-0250","OBJECT_ID":"2021-060B","EPOCH":"2026-01-26T03:01:08.856480","MEAN_MOTION":13.25824352,"ECCENTRICITY":0.00017418,"INCLINATION":87.9011,"RA_OF_ASC_NODE":255.2808,"ARG_OF_PERICENTER":119.6972,"MEAN_ANOMALY":240.4338,"EPHEMERIS_TYPE":0,"CLASSIFICATION_TYPE":"U","NORAD_CAT_ID":48968,"ELEMENT_SET_NO":999,"REV_AT_EPOCH":22139,"BSTAR":0.00018044352,"MEAN_MOTION_DOT":9.2e-7,"MEAN_MOTION_DDOT":0},{"OBJECT_NAME":"ONEWEB-0252","OBJECT_ID":"2021-060D","EPOCH":"2026-01-26T04:44:18.691584","MEAN_MOTION":13.16594382,"ECCENTRICITY":0.00015365,"INCLINATION":87.9013,"RA_OF_ASC_NODE":257.0399,"ARG_OF_PERICENTER":73.4315,"MEAN_ANOMALY":286.6984,"EPHEMERIS_TYPE":0,"CLASSIFICATION_TYPE":"U","NORAD_CAT_ID":48970,"ELEMENT_SET_NO":999,"REV_AT_EPOCH":22097,"BSTAR":-0.00015996392,"MEAN_MOTION_DOT":-4.8e-7,"MEAN_MOTION_DDOT":0},{"OBJECT_NAME":"ONEWEB-0253","OBJECT_ID":"2021-060E","EPOCH":"2026-01-26T04:28:21.018432","MEAN_MOTION":13.1659458,"ECCENTRICITY":0.00013323,"INCLINATION":87.9017,"RA_OF_ASC_NODE":257.0474,"ARG_OF_PERICENTER":81.4198,"MEAN_ANOMALY":278.7084,"EPHEMERIS_TYPE":0,"CLASSIFICATION_TYPE":"U","NORAD_CAT_ID":48971,"ELEMENT_SET_NO":999,"REV_AT_EPOCH":22090,"BSTAR":-0.00069635032,"MEAN_MOTION_DOT":-2.53e-6,"MEAN_MOTION_DDOT":0},{"OBJECT_NAME":"ONEWEB-0254","OBJECT_ID":"2021-060F","EPOCH":"2026-01-26T04:42:01.244736","MEAN_MOTION":13.16593557,"ECCENTRICITY":0.00011751,"INCLINATION":87.9018,"RA_OF_ASC_NODE":257.0386,"ARG_OF_PERICENTER":89.14,"MEAN_ANOMALY":270.9866,"EPHEMERIS_TYPE":0,"CLASSIFICATION_TYPE":"U","NORAD_CAT_ID":48972,"ELEMENT_SET_NO":999,"REV_AT_EPOCH":22090,"BSTAR":-1.2649087e-5,"MEAN_MOTION_DOT":8.0e-8,"MEAN_MOTION_DDOT":0},{"OBJECT_NAME":"ONEWEB-0255","OBJECT_ID":"2021-060G","EPOCH":"2026-01-25T22:19:00.259968","MEAN_MOTION":13.16594923,"ECCENTRICITY":0.00012347,"INCLINATION":87.9014,"RA_OF_ASC_NODE":257.104,"ARG_OF_PERICENTER":85.644,"MEAN_ANOMALY":274.4832,"EPHEMERIS_TYPE":0,"CLASSIFICATION_TYPE":"U","NORAD_CAT_ID":48973,"ELEMENT_SET_NO":999,"REV_AT_EPOCH":22094,"BSTAR":-7.6649913e-5,"MEAN_MOTION_DOT":-1.6e-7,"MEAN_MOTION_DDOT":0},{"OBJECT_NAME":"ONEWEB-0256","OBJECT_ID":"2021-060H","EPOCH":"2026-01-26T04:24:56.036160","MEAN_MOTION":13.16594554,"ECCENTRICITY":0.00015913,"INCLINATION":87.9008,"RA_OF_ASC_NODE":257.0595,"ARG_OF_PERICENTER":79.1965,"MEAN_ANOMALY":280.9345,"EPHEMERIS_TYPE":0,"CLASSIFICATION_TYPE":"U","NORAD_CAT_ID":48974,"ELEMENT_SET_NO":999,"REV_AT_EPOCH":22094,"BSTAR":0.00010285785,"MEAN_MOTION_DOT":5.2e-7,"MEAN_MOTION_DDOT":0},{"OBJECT_NAME":"ONEWEB-0257","OBJECT_ID":"2021-060J","EPOCH":"2026-01-26T03:22:13.548576","MEAN_MOTION":13.16593993,"ECCENTRICITY":0.0001338,"INCLINATION":87.9016,"RA_OF_ASC_NODE":257.0511,"ARG_OF_PERICENTER":78.7911,"MEAN_ANOMALY":281.337,"EPHEMERIS_TYPE":0,"CLASSIFICATION_TYPE":"U","NORAD_CAT_ID":48975,"ELEMENT_SET_NO":999,"REV_AT_EPOCH":22089,"BSTAR":-0.00027170607,"MEAN_MOTION_DOT":-9.1e-7,"MEAN_MOTION_DDOT":0},{"OBJECT_NAME":"ONEWEB-0258","OBJECT_ID":"2021-060K","EPOCH":"2026-01-26T01:35:04.420896","MEAN_MOTION":13.16593973,"ECCENTRICITY":0.00015097,"INCLINATION":87.9009,"RA_OF_ASC_NODE":257.0786,"ARG_OF_PERICENTER":86.3828,"MEAN_ANOMALY":273.7475,"EPHEMERIS_TYPE":0,"CLASSIFICATION_TYPE":"U","NORAD_CAT_ID":48976,"ELEMENT_SET_NO":999,"REV_AT_EPOCH":22089,"BSTAR":-0.00037492487,"MEAN_MOTION_DOT":-1.3e-6,"MEAN_MOTION_DDOT":0},{"OBJECT_NAME":"ONEWEB-0259","OBJECT_ID":"2021-060L","EPOCH":"2026-01-26T03:15:23.298048","MEAN_MOTION":13.16594284,"ECCENTRICITY":0.00013345,"INCLINATION":87.9016,"RA_OF_ASC_NODE":257.0619,"ARG_OF_PERICENTER":85.2175,"MEAN_ANOMALY":274.9108,"EPHEMERIS_TYPE":0,"CLASSIFICATION_TYPE":"U","NORAD_CAT_ID":48977,"ELEMENT_SET_NO":999,"REV_AT_EPOCH":22093,"BSTAR":-0.00043242991,"MEAN_MOTION_DOT":-1.52e-6,"MEAN_MOTION_DDOT":0}]
